CCSDS_OMM_VERS = 2.0
CREATION_DATE  = 
ORIGINATOR     = 

OBJECT_NAME    = STARLINK-36313
OBJECT_ID      = 2026-049Q
CENTER_NAME    = EARTH
REF_FRAME      = TEME
TIME_SYSTEM    = UTC
MEAN_ELEMENT_THEORY = SGP/SGP4

EPOCH          = 2026-03-28T22:00:01.999584
MEAN_MOTION    = 15.80792986
ECCENTRICITY   = .00014636
INCLINATION    = 97.2848
RA_OF_ASC_NODE = 108.1325
ARG_OF_PERICENTER = 71.7689
MEAN_ANOMALY   = 29.0318

EPHEMERIS_TYPE = 0
CLASSIFICATION_TYPE = U
NORAD_CAT_ID   = 68156
ELEMENT_SET_NO = 999
REV_AT_EPOCH   = 372
BSTAR          = .31901577E-3
MEAN_MOTION_DOT = .61331E-3
MEAN_MOTION_DDOT = 0

CCSDS_OMM_VERS = 2.0
CREATION_DATE  = 
ORIGINATOR     = 

OBJECT_NAME    = STARLINK-37064
OBJECT_ID      = 2026-049R
CENTER_NAME    = EARTH
REF_FRAME      = TEME
TIME_SYSTEM    = UTC
MEAN_ELEMENT_THEORY = SGP/SGP4

EPOCH          = 2026-03-28T22:00:01.999584
MEAN_MOTION    = 15.80812084
ECCENTRICITY   = .00011592
INCLINATION    = 97.2846
RA_OF_ASC_NODE = 108.1286
ARG_OF_PERICENTER = 89.8478
MEAN_ANOMALY   = 2.4019

EPHEMERIS_TYPE = 0
CLASSIFICATION_TYPE = U
NORAD_CAT_ID   = 68157
ELEMENT_SET_NO = 999
REV_AT_EPOCH   = 371
BSTAR          = .81318952E-4
MEAN_MOTION_DOT = .15459E-3
MEAN_MOTION_DDOT = 0

CCSDS_OMM_VERS = 2.0
CREATION_DATE  = 
ORIGINATOR     = 

OBJECT_NAME    = STARLINK-37069
OBJECT_ID      = 2026-049S
CENTER_NAME    = EARTH
REF_FRAME      = TEME
TIME_SYSTEM    = UTC
MEAN_ELEMENT_THEORY = SGP/SGP4

EPOCH          = 2026-03-28T22:00:01.999584
MEAN_MOTION    = 15.75197853
ECCENTRICITY   = .00010232
INCLINATION    = 97.2848
RA_OF_ASC_NODE = 108.1225
ARG_OF_PERICENTER = 92.0587
MEAN_ANOMALY   = 342.5636

EPHEMERIS_TYPE = 0
CLASSIFICATION_TYPE = U
NORAD_CAT_ID   = 68158
ELEMENT_SET_NO = 999
REV_AT_EPOCH   = 371
BSTAR          = -.23974544E-3
MEAN_MOTION_DOT = -.35751E-3
MEAN_MOTION_DDOT = 0

CCSDS_OMM_VERS = 2.0
CREATION_DATE  = 
ORIGINATOR     = 

OBJECT_NAME    = STARLINK-37053
OBJECT_ID      = 2026-049T
CENTER_NAME    = EARTH
REF_FRAME      = TEME
TIME_SYSTEM    = UTC
MEAN_ELEMENT_THEORY = SGP/SGP4

EPOCH          = 2026-03-28T22:00:01.999584
MEAN_MOTION    = 15.80768673
ECCENTRICITY   = .00014001
INCLINATION    = 97.2845
RA_OF_ASC_NODE = 108.1392
ARG_OF_PERICENTER = 82.9958
MEAN_ANOMALY   = 34.9310

EPHEMERIS_TYPE = 0
CLASSIFICATION_TYPE = U
NORAD_CAT_ID   = 68159
ELEMENT_SET_NO = 999
REV_AT_EPOCH   = 371
BSTAR          = .30647212E-3
MEAN_MOTION_DOT = .58832E-3
MEAN_MOTION_DDOT = 0

CCSDS_OMM_VERS = 2.0
CREATION_DATE  = 
ORIGINATOR     = 

OBJECT_NAME    = STARLINK-36306
OBJECT_ID      = 2026-049U
CENTER_NAME    = EARTH
REF_FRAME      = TEME
TIME_SYSTEM    = UTC
MEAN_ELEMENT_THEORY = SGP/SGP4

EPOCH          = 2026-03-28T22:00:01.999584
MEAN_MOTION    = 15.75196539
ECCENTRICITY   = .0000969
INCLINATION    = 97.2843
RA_OF_ASC_NODE = 108.1312
ARG_OF_PERICENTER = 82.3940
MEAN_ANOMALY   = 14.2063

EPHEMERIS_TYPE = 0
CLASSIFICATION_TYPE = U
NORAD_CAT_ID   = 68160
ELEMENT_SET_NO = 999
REV_AT_EPOCH   = 372
BSTAR          = -.28659895E-3
MEAN_MOTION_DOT = -.42675E-3
MEAN_MOTION_DDOT = 0

CCSDS_OMM_VERS = 2.0
CREATION_DATE  = 
ORIGINATOR     = 

OBJECT_NAME    = STARLINK-37057
OBJECT_ID      = 2026-049V
CENTER_NAME    = EARTH
REF_FRAME      = TEME
TIME_SYSTEM    = UTC
MEAN_ELEMENT_THEORY = SGP/SGP4

EPOCH          = 2026-03-28T22:00:01.999584
MEAN_MOTION    = 15.80797893
ECCENTRICITY   = .00013461
INCLINATION    = 97.2844
RA_OF_ASC_NODE = 108.1360
ARG_OF_PERICENTER = 93.4271
MEAN_ANOMALY   = 15.9321

EPHEMERIS_TYPE = 0
CLASSIFICATION_TYPE = U
NORAD_CAT_ID   = 68161
ELEMENT_SET_NO = 999
REV_AT_EPOCH   = 371
BSTAR          = .75951347E-3
MEAN_MOTION_DOT = .147707E-2
MEAN_MOTION_DDOT = 0

CCSDS_OMM_VERS = 2.0
CREATION_DATE  = 
ORIGINATOR     = 

OBJECT_NAME    = STARLINK-37013
OBJECT_ID      = 2026-049W
CENTER_NAME    = EARTH
REF_FRAME      = TEME
TIME_SYSTEM    = UTC
MEAN_ELEMENT_THEORY = SGP/SGP4

EPOCH          = 2026-03-28T22:00:01.999584
MEAN_MOTION    = 15.80820462
ECCENTRICITY   = .00012149
INCLINATION    = 97.2845
RA_OF_ASC_NODE = 108.1489
ARG_OF_PERICENTER = 93.5445
MEAN_ANOMALY   = 45.7608

EPHEMERIS_TYPE = 0
CLASSIFICATION_TYPE = U
NORAD_CAT_ID   = 68162
ELEMENT_SET_NO = 999
REV_AT_EPOCH   = 371
BSTAR          = .13351392E-3
MEAN_MOTION_DOT = .25512E-3
MEAN_MOTION_DDOT = 0

CCSDS_OMM_VERS = 2.0
CREATION_DATE  = 
ORIGINATOR     = 

OBJECT_NAME    = STARLINK-36958
OBJECT_ID      = 2026-049X
CENTER_NAME    = EARTH
REF_FRAME      = TEME
TIME_SYSTEM    = UTC
MEAN_ELEMENT_THEORY = SGP/SGP4

EPOCH          = 2026-03-28T22:00:01.999584
MEAN_MOTION    = 15.80810620
ECCENTRICITY   = .00014622
INCLINATION    = 97.2848
RA_OF_ASC_NODE = 108.1450
ARG_OF_PERICENTER = 79.0745
MEAN_ANOMALY   = 51.6347

EPHEMERIS_TYPE = 0
CLASSIFICATION_TYPE = U
NORAD_CAT_ID   = 68163
ELEMENT_SET_NO = 999
REV_AT_EPOCH   = 371
BSTAR          = .10621859E-3
MEAN_MOTION_DOT = .20246E-3
MEAN_MOTION_DDOT = 0

CCSDS_OMM_VERS = 2.0
CREATION_DATE  = 
ORIGINATOR     = 

OBJECT_NAME    = STARLINK-37002
OBJECT_ID      = 2026-049Y
CENTER_NAME    = EARTH
REF_FRAME      = TEME
TIME_SYSTEM    = UTC
MEAN_ELEMENT_THEORY = SGP/SGP4

EPOCH          = 2026-03-28T22:00:01.999584
MEAN_MOTION    = 15.80768339
ECCENTRICITY   = .0001524
INCLINATION    = 97.2846
RA_OF_ASC_NODE = 108.1431
ARG_OF_PERICENTER = 93.6509
MEAN_ANOMALY   = 32.8050

EPHEMERIS_TYPE = 0
CLASSIFICATION_TYPE = U
NORAD_CAT_ID   = 68164
ELEMENT_SET_NO = 999
REV_AT_EPOCH   = 371
BSTAR          = .41975239E-3
MEAN_MOTION_DOT = .80834E-3
MEAN_MOTION_DDOT = 0

CCSDS_OMM_VERS = 2.0
CREATION_DATE  = 
ORIGINATOR     = 

OBJECT_NAME    = STARLINK-36971
OBJECT_ID      = 2026-049Z
CENTER_NAME    = EARTH
REF_FRAME      = TEME
TIME_SYSTEM    = UTC
MEAN_ELEMENT_THEORY = SGP/SGP4

EPOCH          = 2026-03-28T22:00:01.999584
MEAN_MOTION    = 15.80784963
ECCENTRICITY   = .00017725
INCLINATION    = 97.2846
RA_OF_ASC_NODE = 108.1471
ARG_OF_PERICENTER = 96.9440
MEAN_ANOMALY   = 38.0391

EPHEMERIS_TYPE = 0
CLASSIFICATION_TYPE = U
NORAD_CAT_ID   = 68165
ELEMENT_SET_NO = 999
REV_AT_EPOCH   = 371
BSTAR          = .45444078E-3
MEAN_MOTION_DOT = .87663E-3
MEAN_MOTION_DDOT = 0

CCSDS_OMM_VERS = 2.0
CREATION_DATE  = 
ORIGINATOR     = 

OBJECT_NAME    = STARLINK-36273
OBJECT_ID      = 2026-049AA
CENTER_NAME    = EARTH
REF_FRAME      = TEME
TIME_SYSTEM    = UTC
MEAN_ELEMENT_THEORY = SGP/SGP4

EPOCH          = 2026-03-28T22:00:01.999584
MEAN_MOTION    = 15.75176783
ECCENTRICITY   = .00010541
INCLINATION    = 97.2844
RA_OF_ASC_NODE = 108.1340
ARG_OF_PERICENTER = 92.3311
MEAN_ANOMALY   = 8.2892

EPHEMERIS_TYPE = 0
CLASSIFICATION_TYPE = U
NORAD_CAT_ID   = 68166
ELEMENT_SET_NO = 999
REV_AT_EPOCH   = 372
BSTAR          = .24586194E-4
MEAN_MOTION_DOT = .3537E-4
MEAN_MOTION_DDOT = 0

CCSDS_OMM_VERS = 2.0
CREATION_DATE  = 
ORIGINATOR     = 

OBJECT_NAME    = STARLINK-36969
OBJECT_ID      = 2026-050A
CENTER_NAME    = EARTH
REF_FRAME      = TEME
TIME_SYSTEM    = UTC
MEAN_ELEMENT_THEORY = SGP/SGP4

EPOCH          = 2026-03-28T17:13:54.001632
MEAN_MOTION    = 15.80948334
ECCENTRICITY   = .00010685
INCLINATION    = 53.1595
RA_OF_ASC_NODE = 186.4795
ARG_OF_PERICENTER = 74.2990
MEAN_ANOMALY   = 285.8150

EPHEMERIS_TYPE = 0
CLASSIFICATION_TYPE = U
NORAD_CAT_ID   = 68167
ELEMENT_SET_NO = 999
REV_AT_EPOCH   = 348
BSTAR          = .11000967E-2
MEAN_MOTION_DOT = .222893E-2
MEAN_MOTION_DDOT = 0

