STARLINK-36313          
1 68156U 26049Q   26087.91668981  .00061331  00000+0  31902-3 0  9999
2 68156  97.2848 108.1325 0001463  71.7689  29.0318 15.80792986  3728
STARLINK-37064          
1 68157U 26049R   26087.91668981  .00015459  00000+0  81319-4 0  9998
2 68157  97.2846 108.1286 0001159  89.8478   2.4019 15.80812084  3715
STARLINK-37069          
1 68158U 26049S   26087.91668981 -.00035751  00000+0 -23975-3 0  9991
2 68158  97.2848 108.1225 0001023  92.0587 342.5636 15.75197853  3715
STARLINK-37053          
1 68159U 26049T   26087.91668981  .00058832  00000+0  30647-3 0  9999
2 68159  97.2845 108.1392 0001400  82.9958  34.9310 15.80768673  3718
STARLINK-36306          
1 68160U 26049U   26087.91668981 -.00042675  00000+0 -28660-3 0  9993
2 68160  97.2843 108.1312 0000969  82.3940  14.2063 15.75196539  3721
STARLINK-37057          
1 68161U 26049V   26087.91668981  .00147707  00000+0  75951-3 0  9999
2 68161  97.2844 108.1360 0001346  93.4271  15.9321 15.80797893  3716
STARLINK-37013          
1 68162U 26049W   26087.91668981  .00025512  00000+0  13351-3 0  9995
2 68162  97.2845 108.1489 0001214  93.5445  45.7608 15.80820462  3716
STARLINK-36958          
1 68163U 26049X   26087.91668981  .00020246  00000+0  10622-3 0  9993
2 68163  97.2848 108.1450 0001462  79.0745  51.6347 15.80810620  3716
STARLINK-37002          
1 68164U 26049Y   26087.91668981  .00080834  00000+0  41975-3 0  9998
2 68164  97.2846 108.1431 0001524  93.6509  32.8050 15.80768339  3714
STARLINK-36971          
1 68165U 26049Z   26087.91668981  .00087663  00000+0  45444-3 0  9991
2 68165  97.2846 108.1471 0001772  96.9440  38.0391 15.80784963  3711
STARLINK-36273          
1 68166U 26049AA  26087.91668981  .00003537  00000+0  24586-4 0  9995
2 68166  97.2844 108.1340 0001054  92.3311   8.2892 15.75176783  3720
STARLINK-36969          
1 68167U 26050A   26087.71798613  .00222893  00000+0  11001-2 0  9996
2 68167  53.1595 186.4795 0001068  74.2990 285.8150 15.80948334  3483
